{"type": "FeatureCollection", "features": [ {"type": "Feature", "properties": {"norad_id": 40701, "name": "GAOFEN-8", "group": "resource", "lat": 19.708959284356187, "lon": -0.27785134563406033, "alt_km": 445.730139348193, "timestamp": "2025-12-24T05:51:19.262867+00:00", "meta": {"OBJECT_NAME": "GAOFEN-8", "OBJECT_ID": "2015-030A", "EPOCH": "2025-12-23T22:55:16.839264", "MEAN_MOTION": 15.38929874, "ECCENTRICITY": 0.00114472, "INCLINATION": 97.6903, "RA_OF_ASC_NODE": 176.6445, "ARG_OF_PERICENTER": 99.1593, "MEAN_ANOMALY": 261.0947, "EPHEMERIS_TYPE": 0, "CLASSIFICATION_TYPE": "U", "NORAD_CAT_ID": 40701, "ELEMENT_SET_NO": 999, "REV_AT_EPOCH": 58443, "BSTAR": 0.0010328644, "MEAN_MOTION_DOT": 0.0003995, "MEAN_MOTION_DDOT": 0}, "tle": {"line1": "1 40701U 15030A   25357.95505601  .00039950  00000+0  10329-2 0  9996", "line2": "2 40701  97.6903 176.6445 0011447  99.1593 261.0947 15.38929874584433"}}, "geometry": {"type": "Point", "coordinates": [-0.27785134563406033, 19.708959284356187]}}, {"type": "Feature", "properties": {"norad_id": 40718, "name": "CARBONITE 1 (CBNT-1)", "group": "resource", "lat": -62.09175953842375, "lon": -166.53867052244698, "alt_km": 637.1713895980529, "timestamp": "2025-12-24T05:51:19.262877+00:00", "meta": {"OBJECT_NAME": "CARBONITE 1 (CBNT-1)", "OBJECT_ID": "2015-032D", "EPOCH": "2025-12-23T23:39:43.127712", "MEAN_MOTION": 14.82795883, "ECCENTRICITY": 0.00152595, "INCLINATION": 97.6397, "RA_OF_ASC_NODE": 178.5349, "ARG_OF_PERICENTER": 145.3172, "MEAN_ANOMALY": 214.904, "EPHEMERIS_TYPE": 0, "CLASSIFICATION_TYPE": "U", "NORAD_CAT_ID": 40718, "ELEMENT_SET_NO": 999, "REV_AT_EPOCH": 56337, "BSTAR": 0.00054257947, "MEAN_MOTION_DOT": 4.347e-05, "MEAN_MOTION_DDOT": 0}, "tle": {"line1": "1 40718U 15032D   25357.98591583  .00004347  00000+0  54258-3 0  9995", "line2": "2 40718  97.6397 178.5349 0015259 145.3172 214.9040 14.82795883563374"}}, "geometry": {"type": "Point", "coordinates": [-166.53867052244698, -62.09175953842375]}}, {"type": "Feature", "properties": {"norad_id": 40878, "name": "YAOGAN-27", "group": "resource", "lat": -56.56828640516954, "lon": 3.0081546587417276, "alt_km": 1202.6277632835554, "timestamp": "2025-12-24T05:51:19.262886+00:00", "meta": {"OBJECT_NAME": "YAOGAN-27", "OBJECT_ID": "2015-040A", "EPOCH": "2025-12-23T22:51:04.250592", "MEAN_MOTION": 13.16061747, "ECCENTRICITY": 0.00075617, "INCLINATION": 100.1013, "RA_OF_ASC_NODE": 347.0647, "ARG_OF_PERICENTER": 258.7308, "MEAN_ANOMALY": 101.2956, "EPHEMERIS_TYPE": 0, "CLASSIFICATION_TYPE": "U", "NORAD_CAT_ID": 40878, "ELEMENT_SET_NO": 999, "REV_AT_EPOCH": 49461, "BSTAR": 0.00085730842, "MEAN_MOTION_DOT": 2.83e-06, "MEAN_MOTION_DDOT": 0}, "tle": {"line1": "1 40878U 15040A   25357.95213253  .00000283  00000+0  85731-3 0  9998", "line2": "2 40878 100.1013 347.0647 0007561 258.7308 101.2956 13.16061747494612"}}, "geometry": {"type": "Point", "coordinates": [3.0081546587417276, -56.56828640516954]}}, {"type": "Feature", "properties": {"norad_id": 40894, "name": "GAOFEN-9 01", "group": "resource", "lat": -23.651402102165367, "lon": -146.67402592803444, "alt_km": 644.314038426437, "timestamp": "2025-12-24T05:51:19.262896+00:00", "meta": {"OBJECT_NAME": "GAOFEN-9 01", "OBJECT_ID": "2015-047A", "EPOCH": "2025-12-24T00:04:42.605760", "MEAN_MOTION": 14.82448791, "ECCENTRICITY": 0.00274719, "INCLINATION": 97.6528, "RA_OF_ASC_NODE": 36.4716, "ARG_OF_PERICENTER": 357.9194, "MEAN_ANOMALY": 2.1901, "EPHEMERIS_TYPE": 0, "CLASSIFICATION_TYPE": "U", "NORAD_CAT_ID": 40894, "ELEMENT_SET_NO": 999, "REV_AT_EPOCH": 55423, "BSTAR": 0.00014111046, "MEAN_MOTION_DOT": 1.087e-05, "MEAN_MOTION_DDOT": 0}, "tle": {"line1": "1 40894U 15047A   25358.00327090  .00001087  00000+0  14111-3 0  9992", "line2": "2 40894  97.6528  36.4716 0027471 357.9194   2.1901 14.82448791554230"}}, "geometry": {"type": "Point", "coordinates": [-146.67402592803444, -23.651402102165367]}}, {"type": "Feature", "properties": {"norad_id": 41026, "name": "YAOGAN-28", "group": "resource", "lat": -66.84438499162371, "lon": 153.10944953215582, "alt_km": 507.5049842123808, "timestamp": "2025-12-24T05:51:19.262907+00:00", "meta": {"OBJECT_NAME": "YAOGAN-28", "OBJECT_ID": "2015-064A", "EPOCH": "2025-12-23T22:16:37.490016", "MEAN_MOTION": 15.24524768, "ECCENTRICITY": 0.00126653, "INCLINATION": 97.2818, "RA_OF_ASC_NODE": 135.4061, "ARG_OF_PERICENTER": 90.5846, "MEAN_ANOMALY": 269.6844, "EPHEMERIS_TYPE": 0, "CLASSIFICATION_TYPE": "U", "NORAD_CAT_ID": 41026, "ELEMENT_SET_NO": 999, "REV_AT_EPOCH": 56395, "BSTAR": 0.00034893216, "MEAN_MOTION_DOT": 8.536e-05, "MEAN_MOTION_DDOT": 0}, "tle": {"line1": "1 41026U 15064A   25357.92821169  .00008536  00000+0  34893-3 0  9990", "line2": "2 41026  97.2818 135.4061 0012665  90.5846 269.6844 15.24524768563953"}}, "geometry": {"type": "Point", "coordinates": [153.10944953215582, -66.84438499162371]}}, {"type": "Feature", "properties": {"norad_id": 41038, "name": "YAOGAN-29", "group": "resource", "lat": 67.74781944845355, "lon": -138.39046123437058, "alt_km": 613.3226524257216, "timestamp": "2025-12-24T05:51:19.262917+00:00", "meta": {"OBJECT_NAME": "YAOGAN-29", "OBJECT_ID": "2015-069A", "EPOCH": "2025-12-23T22:52:47.042400", "MEAN_MOTION": 14.82892873, "ECCENTRICITY": 8.129e-05, "INCLINATION": 98.0204, "RA_OF_ASC_NODE": 21.16, "ARG_OF_PERICENTER": 170.9921, "MEAN_ANOMALY": 189.1307, "EPHEMERIS_TYPE": 0, "CLASSIFICATION_TYPE": "U", "NORAD_CAT_ID": 41038, "ELEMENT_SET_NO": 999, "REV_AT_EPOCH": 54465, "BSTAR": 4.7213215e-05, "MEAN_MOTION_DOT": 3.28e-06, "MEAN_MOTION_DDOT": 0}, "tle": {"line1": "1 41038U 15069A   25357.95332225  .00000328  00000+0  47213-4 0  9993", "line2": "2 41038  98.0204  21.1600 0000812 170.9921 189.1307 14.82892873544656"}}, "geometry": {"type": "Point", "coordinates": [-138.39046123437058, 67.74781944845355]}}, {"type": "Feature", "properties": {"norad_id": 41167, "name": "KENT RIDGE 1", "group": "resource", "lat": -0.17652338155996566, "lon": 125.11489242040354, "alt_km": 495.53937985049197, "timestamp": "2025-12-24T05:51:19.262927+00:00", "meta": {"OBJECT_NAME": "KENT RIDGE 1", "OBJECT_ID": "2015-077B", "EPOCH": "2025-12-23T17:16:23.896128", "MEAN_MOTION": 15.21715063, "ECCENTRICITY": 0.00085411, "INCLINATION": 14.9789, "RA_OF_ASC_NODE": 129.6607, "ARG_OF_PERICENTER": 285.8156, "MEAN_ANOMALY": 74.1224, "EPHEMERIS_TYPE": 0, "CLASSIFICATION_TYPE": "U", "NORAD_CAT_ID": 41167, "ELEMENT_SET_NO": 999, "REV_AT_EPOCH": 55431, "BSTAR": 0.00016014637, "MEAN_MOTION_DOT": 4.493e-05, "MEAN_MOTION_DDOT": 0}, "tle": {"line1": "1 41167U 15077B   25357.71972102  .00004493  00000+0  16015-3 0  9995", "line2": "2 41167  14.9789 129.6607 0008541 285.8156  74.1224 15.21715063554312"}}, "geometry": {"type": "Point", "coordinates": [125.11489242040354, -0.17652338155996566]}}, {"type": "Feature", "properties": {"norad_id": 41194, "name": "GAOFEN-4", "group": "resource", "lat": -0.10540465264291851, "lon": -73.40269720305801, "alt_km": 35790.854539675616, "timestamp": "2025-12-24T05:51:19.262940+00:00", "meta": {"OBJECT_NAME": "GAOFEN-4", "OBJECT_ID": "2015-083A", "EPOCH": "2025-12-19T15:27:26.627616", "MEAN_MOTION": 1.00273138, "ECCENTRICITY": 0.0002945, "INCLINATION": 0.1878, "RA_OF_ASC_NODE": 81.7841, "ARG_OF_PERICENTER": 93.4275, "MEAN_ANOMALY": 250.8523, "EPHEMERIS_TYPE": 0, "CLASSIFICATION_TYPE": "U", "NORAD_CAT_ID": 41194, "ELEMENT_SET_NO": 999, "REV_AT_EPOCH": 3672, "BSTAR": 0, "MEAN_MOTION_DOT": -3.11e-06, "MEAN_MOTION_DDOT": 0}, "tle": {"line1": "1 41194U 15083A   25353.64405819 -.00000311  00000+0  00000+0 0  9995", "line2": "2 41194   0.1878  81.7841 0002945  93.4275 250.8523  1.00273138 36722"}}, "geometry": {"type": "Point", "coordinates": [-73.40269720305801, -0.10540465264291851]}}, {"type": "Feature", "properties": {"norad_id": 41240, "name": "JASON-3", "group": "resource", "lat": -5.879109203300169, "lon": 131.01361815055455, "alt_km": 1312.8631967394886, "timestamp": "2025-12-24T05:51:19.262951+00:00", "meta": {"OBJECT_NAME": "JASON-3", "OBJECT_ID": "2016-002A", "EPOCH": "2025-12-23T22:25:56.499744", "MEAN_MOTION": 12.87626986, "ECCENTRICITY": 0.00072741, "INCLINATION": 66.0403, "RA_OF_ASC_NODE": 134.2879, "ARG_OF_PERICENTER": 271.4263, "MEAN_ANOMALY": 88.5923, "EPHEMERIS_TYPE": 0, "CLASSIFICATION_TYPE": "U", "NORAD_CAT_ID": 41240, "ELEMENT_SET_NO": 999, "REV_AT_EPOCH": 46468, "BSTAR": 7.0815147e-05, "MEAN_MOTION_DOT": -4.4e-07, "MEAN_MOTION_DDOT": 0}, "tle": {"line1": "1 41240U 16002A   25357.93468171 -.00000044  00000+0  70815-4 0  9994", "line2": "2 41240  66.0403 134.2879 0007274 271.4263  88.5923 12.87626986464689"}}, "geometry": {"type": "Point", "coordinates": [131.01361815055455, -5.879109203300169]}}, {"type": "Feature", "properties": {"norad_id": 41335, "name": "SENTINEL-3A", "group": "resource", "lat": 7.871401665986298, "lon": 61.89283258230737, "alt_km": 804.4788770934438, "timestamp": "2025-12-24T05:51:19.262961+00:00", "meta": {"OBJECT_NAME": "SENTINEL-3A", "OBJECT_ID": "2016-011A", "EPOCH": "2025-12-23T23:05:08.379456", "MEAN_MOTION": 14.26734876, "ECCENTRICITY": 8.949e-05, "INCLINATION": 98.6298, "RA_OF_ASC_NODE": 62.8178, "ARG_OF_PERICENTER": 96.17, "MEAN_ANOMALY": 263.9582, "EPHEMERIS_TYPE": 0, "CLASSIFICATION_TYPE": "U", "NORAD_CAT_ID": 41335, "ELEMENT_SET_NO": 999, "REV_AT_EPOCH": 51307, "BSTAR": 7.4857748e-05, "MEAN_MOTION_DOT": 1.37e-06, "MEAN_MOTION_DDOT": 0}, "tle": {"line1": "1 41335U 16011A   25357.96190254  .00000137  00000+0  74858-4 0  9999", "line2": "2 41335  98.6298  62.8178 0000894  96.1700 263.9582 14.26734876513075"}}, "geometry": {"type": "Point", "coordinates": [61.89283258230737, 7.871401665986298]}}]}